#dP2022 12 21  0  0  0.00000000      96 __u+U ITR00 FIT  IAC
## 2241 259200.00000000   900.00000000 59934 0.0000000000000
+  119   C06C07C08C09C10C11C12C13C14C16C19C20C21C22C23C24C25
+        C26C27C28C29C30C32C33C34C35C36C37C38C39C40C41C42C43
+        C44C45C46E01E02E03E04E05E07E08E09E10E11E12E13E14E15
+        E18E19E21E24E25E26E27E30E31E33E34E36G01G02G03G04G05
+        G06G07G08G09G10G11G12G13G14G15G16G17G18G19G20G21G22
+        G23G24G25G26G27G29G30G31G32J02J03J04R01R02R03R04R05
+        R07R08R09R11R12R13R14R15R16R17R18R19R20R21R22R24R25
++         0  0  0  0  0  0  0  0  0  0  0  0  0  0  0  0  0
++         0  0  0  0  0  0  0  0  0  0  0  0  0  0  0  0  0
++         0  0  0  0  0  0  0  0  0  0  0  0  0  0  0  0  0
++         0  0  0  0  0  0  0  0  0  0  0  0  0  0  0  0  0
++         0  0  0  0  0  0  0  0  0  0  0  0  0  0  0  0  0
++         0  0  0  0  0  0  0  0  0  0  0  0  0  0  0  0  0
++         0  0  0  0  0  0  0  0  0  0  0  0  0  0  0  0  0
%c M  cc GPS ccc cccc cccc cccc cccc ccccc ccccc ccccc ccccc
%c cc cc ccc ccc cccc cccc cccc cccc ccccc ccccc ccccc ccccc
%f  0.0000000  0.000000000  0.00000000000  0.000000000000000
%f  0.0000000  0.000000000  0.00000000000  0.000000000000000
%i    0    0    0    0      0      0      0      0         0
%i    0    0    0    0      0      0      0      0         0
/* INFORMATION & ANALYSIS CENTER (IAC)      ULTRA-RAPID DATA
/* S/V CLOCKS ARE ALIGNED TO GNSS TIME                      
/* G:C1WC2W R:C1PC2P E:C1XC5X C:C2IC6I J:C1CC2S             
/* PCV:IGS20_2239 OL/AL:FES2004  NONE     YN ORB:CoN CLK:CoN
*  2022 12 21  3 15  0.00000000
PC06  -1111.396063  27690.682408  31835.697220    214.802172
PC07 -15819.645789  31829.939405 -22752.213785    131.668240
PC08  -7273.846124  40711.829394  -7707.599594    524.149710
PC09   5973.145403  30979.634540  28590.535718   -777.994276
PC10 -10037.944942  31604.375969 -25987.706020     47.684504
PC11   8552.396152 -12837.512745  23328.358008   -224.031930
PC12  22884.700295    318.798171  16004.672431    356.384871
PC13  -2587.572317  41904.381850  -1121.998034    163.373498
PC14  16708.374452 -19585.138763 -10696.018693    286.246226
PC16  -5456.265543  25088.359118  33677.081739     97.780466
PC19  -7959.983925  19801.562897  18007.139320   -902.070187
PC20 -21911.034822  16959.090752   3425.694405    798.178829
PC21  23662.754171  -3586.505622  14352.019811   -924.213704
PC22  11227.988766  11366.383409  22874.165380   -728.851041
PC23 -10048.938822 -22859.192448  12468.146629   -871.130843
PC24  13229.806031 -15218.241048 -19321.269003   -647.309328
PC25    844.253776 -27635.387701  -3894.623316     42.772273
PC26  16347.202692   3431.992152 -22366.932911    -52.813484
PC27 -25644.474851  -6792.439270  -8654.055828     69.383850
PC28 -20425.966245 -17200.388990   8117.367093     49.641662
PC29   2804.803801  17813.647820 -21298.948746     56.544295
PC30 -16931.477652   7880.481878 -20731.321587      1.237512
PC32 -23613.220680   3716.134327 -14390.580763   -675.810166
PC33   7934.655450 -19871.732167 -17908.668227   -890.915291
PC34  15965.112225  -8718.377362  21161.578896     65.723921
PC35  19901.051094  17081.234836  -9589.916958 999999.999999
PC36  -1935.770978  27464.249510   4524.348686   -752.558392
PC37 -16155.150992  -5468.704933  22098.925238   -874.288195
PC38 -11134.183054  37951.983153 -14340.193858     46.406845
PC39  -8593.621518  22907.099890  34372.260719     -1.114092
PC40 -24174.149250  26560.518066 -22260.641441    -10.656977
PC41 -10733.929084 -11742.483553 -22877.993088   -403.232927
PC42  22479.188309 -16378.670274  -2144.655995   -891.578095
PC43  -1830.184024 -17692.656069  21492.204348     31.190774
PC44  25945.195790   5995.866126   8393.450640    151.670094
PC45  10185.173162  22569.316844 -12846.186994    -37.324336
PC46 -12370.824455  16900.787666  18412.630869    -20.961536
PE01 -18956.557953   2659.331924  22573.902098   -580.907206
PE02  19063.282146  -3033.540742 -22451.500774      9.820969
PE03  29541.842213    242.689389   1788.638585   -631.871928
PE04 -22312.025951  11704.619212  15530.448121    -18.613090
PE05  19557.925231  12339.915991  18475.152464   -113.058211
PE07   1720.622267 -17056.030789 -24132.070227     -8.813297
PE08  22332.008164 -11642.012026 -15555.775807     -6.126452
PE09  -1940.487657  16911.883148  24211.199240   -771.348625
PE10  -3421.168502  20263.985965 -21300.394008   -499.286421
PE11   5361.358274  25567.247626 -13931.284260     96.223096
PE12 -11003.013276  12388.599574 -24524.840827   -344.625047
PE13  -4692.540495 -25248.712446  14726.186937    430.294525
PE14  15947.762143 -10114.902976  13912.713648     90.472730
PE15  11153.358405 -12061.811458  24633.928223    699.555412
PE18 -20807.716208  14623.003309 -20212.308569   -603.960251
PE19 -29194.359583  -2120.083898  -4371.672637  -3691.248802
PE21  -9357.552543 -15955.594663  23110.146066   -501.547081
PE24  -7057.224443  27039.680225  -9724.997778  -1013.232754
PE25   9144.402736  16208.638028 -23010.663105   -595.392883
PE26 -17952.457402 -23099.831125  -4514.211536  -1875.293378
PE27   6305.074640 -26949.766004  10521.968951   -468.177254
PE30  18466.183776 -21418.582502  -8793.125592  -1094.803968
PE31 -18099.975328  21952.832176   8146.785728   -511.204055
PE33 -20301.880158  -8158.021286 -19924.531794   -455.298002
PE34  20287.693765   7936.191403  20035.953702    -20.685367
PE36  17625.002088  23492.716170   3719.610991   -478.439298
PG01  17206.772953   6177.303960  19083.988259    234.933131
PG02 -16996.537725  -1459.370702 -19669.091318   -631.920218
PG03  17931.304258  -4526.196595  18901.595242   -375.120471
PG04  26530.682693    435.052477  -2133.285421    -64.613886
PG05 -11748.668954  -9946.207004 -21805.685591   -108.873143
PG06  -4092.547872 -23777.354468  11077.692340    544.186592
PG07  11931.099952  -9802.743079 -21142.728468    271.373094
PG08  24207.120958   6758.870396  -9205.757491    -99.659497
PG09  21976.696195  -8424.266856 -12435.282362   -250.085409
PG10 -10429.918656  23647.338568   5503.922985    -16.993141
PG11 -12001.431417 -23675.553186  -1391.215916    -61.177483
PG12 -17983.026919   2269.293181  19104.926533   -318.413711
PG13 -18395.476751 -13178.417815 -14234.330067    445.539604
PG14  12870.960735 -22948.386929   3127.586963    -64.574760
PG15 -24776.522673  -4535.655860  -9302.312719     -2.326733
PG16   7690.418531  14162.265562 -21317.914995   -525.782693
PG17  10508.174651 -13199.107887  20976.483876    687.498557
PG18  -9858.674884  12541.554837 -21208.010702    -67.120552
PG19      0.000000      0.000000      0.000000 999999.999999
PG20  -4060.827390 -20646.900390 -16314.120477    462.225802
PG21  19618.364340  12999.384512  13641.891436    153.326400
PG22   5892.726862  15578.277067  21152.672012    389.011059
PG23 -16406.258902  19955.325673  -5837.710976      0.476908
PG24 -19470.239793  -9072.180762  15541.054125      6.266538
PG25 -18817.177398  12757.734110  13192.803158    403.960192
PG26   -453.677483  22439.676205 -14037.118514    238.828069
PG27  15623.483707  12723.811061 -17735.315040    147.761939
PG29 -23874.331028   4603.480267 -10824.387353   -575.396559
PG30   3092.356385 -20483.992679 -16387.453494   -535.026876
PG31   4826.996738  24165.217576   9113.687385   -203.903402
PG32  -6430.654768  14740.234446  21260.483425   -336.842771
PJ02 -33052.170681  25202.805363  12276.526309     -0.370080
PJ03 -22223.799767  19647.593717 -25318.096487     -7.137231
PJ04 -26538.257289  33019.685382   5992.831881    115.820711
PR01 -12113.476312  -5994.205361 -21636.913312     19.900593
PR02 -23461.979864   5119.261637  -8457.506023    -23.376059
PR03 -20096.927793  12838.942454   9003.769377     69.437714
PR04  -5851.812981  12996.765090  21173.359442    169.383453
PR05  11690.459442   6265.328108  21801.825928    104.882273
PR07  19769.071447 -12977.860777  -9598.981519     46.478233
PR08   5675.403769 -13086.778811 -21102.544194    -68.632442
PR09  11493.026481  -1853.442874 -22676.833777     94.146953
PR11   2372.996074 -25355.042007   1373.540462     13.299178
PR12  -6563.997825 -16790.191348  18077.227099     23.770551
PR13 -11090.031665     13.307886  22952.133950    -30.145143
PR14  -9323.399390  18991.558478  14266.985312     24.103322
PR15  -2127.489424  25301.961409  -2419.834132     92.219989
PR16      0.000000      0.000000      0.000000 999999.999999
PR17  -9325.961146   5970.324586 -22967.123459    588.748503
PR18   5854.720253  15707.179187 -19224.457996     57.830239
PR19  16726.625837  18025.528339  -6764.709814   -215.319569
PR20  19774.161869   8878.771962  13494.661844    -84.384946
PR21   7864.789595  -7111.935368  23205.168368   -359.119619
PR22  -5664.193080 -16458.816288  18671.974256     19.040516
PR24 -20012.865253  -7609.699110 -13854.130271    134.153228
PR25  10079.411679  -5492.119465  22786.956182     49.437026
EOF
